CCSDS_OMM_VERS = 2.0
CREATION_DATE  = 
ORIGINATOR     = 

OBJECT_NAME    = STARLINK-36698
OBJECT_ID      = 2026-025S
CENTER_NAME    = EARTH
REF_FRAME      = TEME
TIME_SYSTEM    = UTC
MEAN_ELEMENT_THEORY = SGP/SGP4

EPOCH          = 2026-03-03T13:43:35.145120
MEAN_MOTION    = 15.80915947
ECCENTRICITY   = .00017247
INCLINATION    = 97.2857
RA_OF_ASC_NODE = 173.9467
ARG_OF_PERICENTER = 134.3553
MEAN_ANOMALY   = 225.7857

EPHEMERIS_TYPE = 0
CLASSIFICATION_TYPE = U
NORAD_CAT_ID   = 67709
ELEMENT_SET_NO = 999
REV_AT_EPOCH   = 498
BSTAR          = .12082067E-2
MEAN_MOTION_DOT = .238823E-2
MEAN_MOTION_DDOT = 0

CCSDS_OMM_VERS = 2.0
CREATION_DATE  = 
ORIGINATOR     = 

OBJECT_NAME    = STARLINK-36344
OBJECT_ID      = 2026-025T
CENTER_NAME    = EARTH
REF_FRAME      = TEME
TIME_SYSTEM    = UTC
MEAN_ELEMENT_THEORY = SGP/SGP4

EPOCH          = 2026-03-03T14:00:03.000384
MEAN_MOTION    = 15.75191293
ECCENTRICITY   = .00015096
INCLINATION    = 97.2847
RA_OF_ASC_NODE = 173.9344
ARG_OF_PERICENTER = 67.9711
MEAN_ANOMALY   = 297.9874

EPHEMERIS_TYPE = 0
CLASSIFICATION_TYPE = U
NORAD_CAT_ID   = 67710
ELEMENT_SET_NO = 999
REV_AT_EPOCH   = 503
BSTAR          = -.27354744E-3
MEAN_MOTION_DOT = -.4074E-3
MEAN_MOTION_DDOT = 0

CCSDS_OMM_VERS = 2.0
CREATION_DATE  = 
ORIGINATOR     = 

OBJECT_NAME    = STARLINK-36687
OBJECT_ID      = 2026-025U
CENTER_NAME    = EARTH
REF_FRAME      = TEME
TIME_SYSTEM    = UTC
MEAN_ELEMENT_THEORY = SGP/SGP4

EPOCH          = 2026-03-03T13:46:55.050528
MEAN_MOTION    = 15.80895958
ECCENTRICITY   = .00022723
INCLINATION    = 97.2855
RA_OF_ASC_NODE = 173.9436
ARG_OF_PERICENTER = 63.5488
MEAN_ANOMALY   = 296.6013

EPHEMERIS_TYPE = 0
CLASSIFICATION_TYPE = U
NORAD_CAT_ID   = 67711
ELEMENT_SET_NO = 999
REV_AT_EPOCH   = 499
BSTAR          = .11662166E-2
MEAN_MOTION_DOT = .230083E-2
MEAN_MOTION_DDOT = 0

CCSDS_OMM_VERS = 2.0
CREATION_DATE  = 
ORIGINATOR     = 

OBJECT_NAME    = STARLINK-36705
OBJECT_ID      = 2026-025V
CENTER_NAME    = EARTH
REF_FRAME      = TEME
TIME_SYSTEM    = UTC
MEAN_ELEMENT_THEORY = SGP/SGP4

EPOCH          = 2026-03-03T06:32:51.336096
MEAN_MOTION    = 15.75264555
ECCENTRICITY   = .00013214
INCLINATION    = 97.2865
RA_OF_ASC_NODE = 173.5860
ARG_OF_PERICENTER = 108.2749
MEAN_ANOMALY   = 251.8660

EPHEMERIS_TYPE = 0
CLASSIFICATION_TYPE = U
NORAD_CAT_ID   = 67712
ELEMENT_SET_NO = 999
REV_AT_EPOCH   = 493
BSTAR          = .15451217E-2
MEAN_MOTION_DOT = .237628E-2
MEAN_MOTION_DDOT = 0

CCSDS_OMM_VERS = 2.0
CREATION_DATE  = 
ORIGINATOR     = 

OBJECT_NAME    = STARLINK-36708
OBJECT_ID      = 2026-025W
CENTER_NAME    = EARTH
REF_FRAME      = TEME
TIME_SYSTEM    = UTC
MEAN_ELEMENT_THEORY = SGP/SGP4

EPOCH          = 2026-03-03T05:55:33.590784
MEAN_MOTION    = 15.81043377
ECCENTRICITY   = .00013277
INCLINATION    = 97.2866
RA_OF_ASC_NODE = 173.6220
ARG_OF_PERICENTER = 127.8035
MEAN_ANOMALY   = 232.3354

EPHEMERIS_TYPE = 0
CLASSIFICATION_TYPE = U
NORAD_CAT_ID   = 67713
ELEMENT_SET_NO = 999
REV_AT_EPOCH   = 493
BSTAR          = .2764055E-2
MEAN_MOTION_DOT = .571415E-2
MEAN_MOTION_DDOT = 0

CCSDS_OMM_VERS = 2.0
CREATION_DATE  = 
ORIGINATOR     = 

OBJECT_NAME    = STARLINK-36702
OBJECT_ID      = 2026-025X
CENTER_NAME    = EARTH
REF_FRAME      = TEME
TIME_SYSTEM    = UTC
MEAN_ELEMENT_THEORY = SGP/SGP4

EPOCH          = 2026-03-03T05:58:23.642400
MEAN_MOTION    = 15.81051454
ECCENTRICITY   = .00011003
INCLINATION    = 97.2864
RA_OF_ASC_NODE = 173.6191
ARG_OF_PERICENTER = 130.1824
MEAN_ANOMALY   = 229.9541

EPHEMERIS_TYPE = 0
CLASSIFICATION_TYPE = U
NORAD_CAT_ID   = 67714
ELEMENT_SET_NO = 999
REV_AT_EPOCH   = 493
BSTAR          = .27682448E-2
MEAN_MOTION_DOT = .572587E-2
MEAN_MOTION_DDOT = 0

CCSDS_OMM_VERS = 2.0
CREATION_DATE  = 
ORIGINATOR     = 

OBJECT_NAME    = STARLINK-36718
OBJECT_ID      = 2026-025Y
CENTER_NAME    = EARTH
REF_FRAME      = TEME
TIME_SYSTEM    = UTC
MEAN_ELEMENT_THEORY = SGP/SGP4

EPOCH          = 2026-03-03T07:20:39.828192
MEAN_MOTION    = 15.80852884
ECCENTRICITY   = .00030073
INCLINATION    = 97.2872
RA_OF_ASC_NODE = 173.6950
ARG_OF_PERICENTER = 359.0207
MEAN_ANOMALY   = 1.1055

EPHEMERIS_TYPE = 0
CLASSIFICATION_TYPE = U
NORAD_CAT_ID   = 67715
ELEMENT_SET_NO = 999
REV_AT_EPOCH   = 494
BSTAR          = .82491034E-3
MEAN_MOTION_DOT = .161115E-2
MEAN_MOTION_DDOT = 0

CCSDS_OMM_VERS = 2.0
CREATION_DATE  = 
ORIGINATOR     = 

OBJECT_NAME    = STARLINK-36715
OBJECT_ID      = 2026-025Z
CENTER_NAME    = EARTH
REF_FRAME      = TEME
TIME_SYSTEM    = UTC
MEAN_ELEMENT_THEORY = SGP/SGP4

EPOCH          = 2026-03-03T05:52:28.803648
MEAN_MOTION    = 15.81062324
ECCENTRICITY   = .00013669
INCLINATION    = 97.2866
RA_OF_ASC_NODE = 173.6251
ARG_OF_PERICENTER = 160.5789
MEAN_ANOMALY   = 199.5532

EPHEMERIS_TYPE = 0
CLASSIFICATION_TYPE = U
NORAD_CAT_ID   = 67716
ELEMENT_SET_NO = 999
REV_AT_EPOCH   = 493
BSTAR          = .29364153E-2
MEAN_MOTION_DOT = .610348E-2
MEAN_MOTION_DDOT = 0

CCSDS_OMM_VERS = 2.0
CREATION_DATE  = 
ORIGINATOR     = 

OBJECT_NAME    = STARLINK-36385
OBJECT_ID      = 2026-025AA
CENTER_NAME    = EARTH
REF_FRAME      = TEME
TIME_SYSTEM    = UTC
MEAN_ELEMENT_THEORY = SGP/SGP4

EPOCH          = 2026-03-03T06:01:29.457696
MEAN_MOTION    = 15.81061260
ECCENTRICITY   = .00045794
INCLINATION    = 97.2867
RA_OF_ASC_NODE = 173.6168
ARG_OF_PERICENTER = 292.1420
MEAN_ANOMALY   = 67.9362

EPHEMERIS_TYPE = 0
CLASSIFICATION_TYPE = U
NORAD_CAT_ID   = 67717
ELEMENT_SET_NO = 999
REV_AT_EPOCH   = 493
BSTAR          = .18605405E-2
MEAN_MOTION_DOT = .376331E-2
MEAN_MOTION_DDOT = 0

CCSDS_OMM_VERS = 2.0
CREATION_DATE  = 
ORIGINATOR     = 

OBJECT_NAME    = CZ-2F DEB
OBJECT_ID      = 2026-024E
CENTER_NAME    = EARTH
REF_FRAME      = TEME
TIME_SYSTEM    = UTC
MEAN_ELEMENT_THEORY = SGP/SGP4

EPOCH          = 2026-02-27T12:10:33.167712
MEAN_MOTION    = 15.20915897
ECCENTRICITY   = .02465096
INCLINATION    = 50.3169
RA_OF_ASC_NODE = 68.5830
ARG_OF_PERICENTER = 240.0171
MEAN_ANOMALY   = 117.6115

EPHEMERIS_TYPE = 0
CLASSIFICATION_TYPE = U
NORAD_CAT_ID   = 67718
ELEMENT_SET_NO = 999
REV_AT_EPOCH   = 308
BSTAR          = .35886422E-2
MEAN_MOTION_DOT = .191604E-2
MEAN_MOTION_DDOT = 0

CCSDS_OMM_VERS = 2.0
CREATION_DATE  = 
ORIGINATOR     = 

OBJECT_NAME    = CZ-2F DEB
OBJECT_ID      = 2026-024F
CENTER_NAME    = EARTH
REF_FRAME      = TEME
TIME_SYSTEM    = UTC
MEAN_ELEMENT_THEORY = SGP/SGP4

EPOCH          = 2026-03-03T10:19:56.274816
MEAN_MOTION    = 15.01613849
ECCENTRICITY   = .03179225
INCLINATION    = 49.7921
RA_OF_ASC_NODE = 52.0253
ARG_OF_PERICENTER = 246.3783
MEAN_ANOMALY   = 110.3486

EPHEMERIS_TYPE = 0
CLASSIFICATION_TYPE = U
NORAD_CAT_ID   = 67719
ELEMENT_SET_NO = 999
REV_AT_EPOCH   = 330
BSTAR          = .37658998E-2
MEAN_MOTION_DOT = .154944E-2
MEAN_MOTION_DDOT = 0

CCSDS_OMM_VERS = 2.0
CREATION_DATE  = 
ORIGINATOR     = 

OBJECT_NAME    = CZ-2F DEB
OBJECT_ID      = 2026-024G
CENTER_NAME    = EARTH
REF_FRAME      = TEME
TIME_SYSTEM    = UTC
MEAN_ELEMENT_THEORY = SGP/SGP4

EPOCH          = 2026-03-03T09:46:04.107936
MEAN_MOTION    = 14.98925947
ECCENTRICITY   = .0328736
INCLINATION    = 49.8313
RA_OF_ASC_NODE = 52.6569
ARG_OF_PERICENTER = 242.4792
MEAN_ANOMALY   = 114.2388

EPHEMERIS_TYPE = 0
CLASSIFICATION_TYPE = U
NORAD_CAT_ID   = 67720
ELEMENT_SET_NO = 999
REV_AT_EPOCH   = 361
BSTAR          = .37157373E-2
MEAN_MOTION_DOT = .148745E-2
MEAN_MOTION_DDOT = 0

