STARLINK-36698          
1 67709U 26025S   26062.57193455  .00238823  00000+0  12082-2 0  9999
2 67709  97.2857 173.9467 0001724 134.3553 225.7857 15.80915947  4980
STARLINK-36344          
1 67710U 26025T   26062.58336806 -.00040740  00000+0 -27355-3 0  9992
2 67710  97.2847 173.9344 0001509  67.9711 297.9874 15.75191293  5034
STARLINK-36687          
1 67711U 26025U   26062.57424827  .00230083  00000+0  11662-2 0  9995
2 67711  97.2855 173.9436 0002272  63.5488 296.6013 15.80895958  4997
STARLINK-36705          
1 67712U 26025V   26062.27281639  .00237628  00000+0  15451-2 0  9997
2 67712  97.2865 173.5860 0001321 108.2749 251.8660 15.75264555  4939
STARLINK-36708          
1 67713U 26025W   26062.24691656  .00571415  00000+0  27641-2 0  9998
2 67713  97.2866 173.6220 0001327 127.8035 232.3354 15.81043377  4931
STARLINK-36702          
1 67714U 26025X   26062.24888475  .00572587  00000+0  27682-2 0  9992
2 67714  97.2864 173.6191 0001100 130.1824 229.9541 15.81051454  4934
STARLINK-36718          
1 67715U 26025Y   26062.30601653  .00161115  00000+0  82491-3 0  9992
2 67715  97.2872 173.6950 0003007 359.0207   1.1055 15.80852884  4948
STARLINK-36715          
1 67716U 26025Z   26062.24477782  .00610348  00000+0  29364-2 0  9996
2 67716  97.2866 173.6251 0001366 160.5789 199.5532 15.81062324  4936
STARLINK-36385          
1 67717U 26025AA  26062.25103539  .00376331  00000+0  18605-2 0  9991
2 67717  97.2867 173.6168 0004579 292.1420  67.9362 15.81061260  4935
CZ-2F DEB               
1 67718U 26024E   26058.50732833  .00191604  00000+0  35886-2 0  9997
2 67718  50.3169  68.5830 0246509 240.0171 117.6115 15.20915897  3086
CZ-2F DEB               
1 67719U 26024F   26062.43051244  .00154944  00000+0  37659-2 0  9991
2 67719  49.7921  52.0253 0317922 246.3783 110.3486 15.01613849  3305
CZ-2F DEB               
1 67720U 26024G   26062.40699199  .00148745  00000+0  37157-2 0  9992
2 67720  49.8313  52.6569 0328736 242.4792 114.2388 14.98925947  3619
